{
  "norad_id": 55142,
  "name": "ONEWEB-0541",
  "history": [
    {
      "epoch": "2026-03-28T22:02:04.637472Z",
      "apogee_km": 1219.143704038539,
      "perigee_km": 1216.223870527907,
      "latitude_deg": 5.041680841219098e-05,
      "longitude_deg": -119.84358663612576,
      "height_km": 1220.1909433025282,
      "semi_major_axis_km": 7595.820787283223,
      "eccentricity": 0.0001922,
      "inclination_deg": 87.8905,
      "raan_deg": 37.0074,
      "arg_perigee_deg": 74.9586,
      "mean_anomaly_deg": 285.1755,
      "mean_motion_rev_day": 13.11416663
    },
    {
      "epoch": "2026-03-29T03:31:40.737792Z",
      "apogee_km": 1219.1380149446159,
      "perigee_km": 1216.2272968524758,
      "latitude_deg": 2.05206525882863e-05,
      "longitude_deg": 157.48488998298635,
      "height_km": 1220.190052388146,
      "semi_major_axis_km": 7595.8196558985455,
      "eccentricity": 0.0001916,
      "inclination_deg": 87.8906,
      "raan_deg": 36.9619,
      "arg_perigee_deg": 74.9195,
      "mean_anomaly_deg": 285.2145,
      "mean_motion_rev_day": 13.11416956
    },
    {
      "epoch": "2026-03-30T03:19:57.193824Z",
      "apogee_km": 1219.1824248538524,
      "perigee_km": 1216.1766083419034,
      "latitude_deg": 7.556709857933436e-05,
      "longitude_deg": 159.24130679735305,
      "height_km": 1220.1875948161658,
      "semi_major_axis_km": 7595.816516597877,
      "eccentricity": 0.00019786,
      "inclination_deg": 87.8899,
      "raan_deg": 36.7645,
      "arg_perigee_deg": 75.4393,
      "mean_anomaly_deg": 284.6955,
      "mean_motion_rev_day": 13.11417769
    },
    {
      "epoch": "2026-03-30T14:19:09.327072Z",
      "apogee_km": 1219.1268170565636,
      "perigee_km": 1216.2314438639542,
      "latitude_deg": 3.3567780688696915e-05,
      "longitude_deg": -6.101257300918141,
      "height_km": 1220.188212440024,
      "semi_major_axis_km": 7595.816130460258,
      "eccentricity": 0.00019059,
      "inclination_deg": 87.8908,
      "raan_deg": 36.6737,
      "arg_perigee_deg": 74.906,
      "mean_anomaly_deg": 285.2279,
      "mean_motion_rev_day": 13.11417869
    },
    {
      "epoch": "2026-03-30T19:48:45.448128Z",
      "apogee_km": 1219.1379867588466,
      "perigee_km": 1216.2207375268017,
      "latitude_deg": 6.4149810434525e-05,
      "longitude_deg": -88.77296488030373,
      "height_km": 1220.1880994503117,
      "semi_major_axis_km": 7595.816362142824,
      "eccentricity": 0.00019203,
      "inclination_deg": 87.8908,
      "raan_deg": 36.6281,
      "arg_perigee_deg": 75.0091,
      "mean_anomaly_deg": 285.125,
      "mean_motion_rev_day": 13.11417809
    },
    {
      "epoch": "2026-03-31T21:26:53.753280Z",
      "apogee_km": 1219.1281033076057,
      "perigee_km": 1216.2249833713413,
      "latitude_deg": 6.578065776239612e-05,
      "longitude_deg": -114.57268650205837,
      "height_km": 1220.187426780383,
      "semi_major_axis_km": 7595.813543339473,
      "eccentricity": 0.0001911,
      "inclination_deg": 87.8909,
      "raan_deg": 36.4158,
      "arg_perigee_deg": 75.0214,
      "mean_anomaly_deg": 285.1126,
      "mean_motion_rev_day": 13.11418539
    },
    {
      "epoch": "2026-04-01T21:15:10.052928Z",
      "apogee_km": 1219.1207018531177,
      "perigee_km": 1216.234292344221,
      "latitude_deg": 5.459405904343168e-06,
      "longitude_deg": -112.8153198849182,
      "height_km": 1220.1860954133183,
      "semi_major_axis_km": 7595.81449709867,
      "eccentricity": 0.00019,
      "inclination_deg": 87.8913,
      "raan_deg": 36.2187,
      "arg_perigee_deg": 74.8373,
      "mean_anomaly_deg": 285.2965,
      "mean_motion_rev_day": 13.11418292
    },
    {
      "epoch": "2026-04-02T21:03:26.416512Z",
      "apogee_km": 1219.1102593991018,
      "perigee_km": 1216.2508898313126,
      "latitude_deg": 2.810241135048809e-05,
      "longitude_deg": -111.05821784483732,
      "height_km": 1220.1865420970864,
      "semi_major_axis_km": 7595.8175746152065,
      "eccentricity": 0.00018822,
      "inclination_deg": 87.8915,
      "raan_deg": 36.0216,
      "arg_perigee_deg": 74.5798,
      "mean_anomaly_deg": 285.5538,
      "mean_motion_rev_day": 13.11417495
    },
    {
      "epoch": "2026-04-03T20:51:42.729984Z",
      "apogee_km": 1219.096840639092,
      "perigee_km": 1216.260563056022,
      "latitude_deg": 1.5492915548592946e-05,
      "longitude_deg": -109.30110845788174,
      "height_km": 1220.1831041559662,
      "semi_major_axis_km": 7595.815701847557,
      "eccentricity": 0.0001867,
      "inclination_deg": 87.8916,
      "raan_deg": 35.8243,
      "arg_perigee_deg": 74.3841,
      "mean_anomaly_deg": 285.7493,
      "mean_motion_rev_day": 13.1141798
    },
    {
      "epoch": "2026-04-04T06:01:02.930304Z",
      "apogee_km": 1219.0910676551275,
      "perigee_km": 1216.2731706782988,
      "latitude_deg": -4.6075477871994425e-05,
      "longitude_deg": 112.91291344764744,
      "height_km": 1220.1877937848046,
      "semi_major_axis_km": 7595.819119166713,
      "eccentricity": 0.00018549,
      "inclination_deg": 87.8916,
      "raan_deg": 35.7485,
      "arg_perigee_deg": 74.3321,
      "mean_anomaly_deg": 285.8011,
      "mean_motion_rev_day": 13.11417095
    },
    {
      "epoch": "2026-04-05T13:08:47.550048Z",
      "apogee_km": 1219.0699602510513,
      "perigee_km": 1216.2958149117085,
      "latitude_deg": -5.2192890206051416e-05,
      "longitude_deg": 4.44067082026366,
      "height_km": 1220.1770400034293,
      "semi_major_axis_km": 7595.81988758138,
      "eccentricity": 0.00018261,
      "inclination_deg": 87.8916,
      "raan_deg": 35.4906,
      "arg_perigee_deg": 73.5804,
      "mean_anomaly_deg": 286.5524,
      "mean_motion_rev_day": 13.11416896
    },
    {
      "epoch": "2026-04-05T20:28:15.809664Z",
      "apogee_km": 1219.0813048341934,
      "perigee_km": 1216.2936372533213,
      "latitude_deg": -5.368189147864617e-05,
      "longitude_deg": -105.78838538729511,
      "height_km": 1220.1805444500155,
      "semi_major_axis_km": 7595.8244710437575,
      "eccentricity": 0.0001835,
      "inclination_deg": 87.8916,
      "raan_deg": 35.4301,
      "arg_perigee_deg": 73.6168,
      "mean_anomaly_deg": 286.5161,
      "mean_motion_rev_day": 13.11415709
    },
    {
      "epoch": "2026-04-05T20:28:15.810528Z",
      "apogee_km": 1219.081608667174,
      "perigee_km": 1216.2933334203426,
      "latitude_deg": -5.810413270952125e-05,
      "longitude_deg": -105.7883891591353,
      "height_km": 1220.1804587358163,
      "semi_major_axis_km": 7595.8244710437575,
      "eccentricity": 0.00018354,
      "inclination_deg": 87.8916,
      "raan_deg": 35.4301,
      "arg_perigee_deg": 73.6168,
      "mean_anomaly_deg": 286.5161,
      "mean_motion_rev_day": 13.11415709
    },
    {
      "epoch": "2026-04-07T12:45:20.953728Z",
      "apogee_km": 1219.0740784076625,
      "perigee_km": 1216.304640117075,
      "latitude_deg": -7.30255568973759e-05,
      "longitude_deg": 7.952739603615825,
      "height_km": 1220.1966654140408,
      "semi_major_axis_km": 7595.826359262368,
      "eccentricity": 0.0001823,
      "inclination_deg": 87.8915,
      "raan_deg": 35.0971,
      "arg_perigee_deg": 74.1184,
      "mean_anomaly_deg": 286.0144,
      "mean_motion_rev_day": 13.1141522
    },
    {
      "epoch": "2026-04-07T18:14:57.177600Z",
      "apogee_km": 1219.088385530693,
      "perigee_km": 1216.2931209175076,
      "latitude_deg": 1.6370646795389082e-05,
      "longitude_deg": -74.7191963303373,
      "height_km": 1220.20004629893,
      "semi_major_axis_km": 7595.8277532241,
      "eccentricity": 0.000184,
      "inclination_deg": 87.8916,
      "raan_deg": 35.0517,
      "arg_perigee_deg": 74.3555,
      "mean_anomaly_deg": 285.7776,
      "mean_motion_rev_day": 13.11414859
    },
    {
      "epoch": "2026-04-08T12:33:37.778688Z",
      "apogee_km": 1219.0728591000488,
      "perigee_km": 1216.3104081425745,
      "latitude_deg": 8.487745296963636e-05,
      "longitude_deg": 9.708015191366567,
      "height_km": 1220.1984104003368,
      "semi_major_axis_km": 7595.828633621311,
      "eccentricity": 0.00018184,
      "inclination_deg": 87.8916,
      "raan_deg": 34.9001,
      "arg_perigee_deg": 74.055,
      "mean_anomaly_deg": 286.0779,
      "mean_motion_rev_day": 13.11414631
    },
    {
      "epoch": "2026-04-09T19:41:22.882272Z",
      "apogee_km": 1219.0768565038115,
      "perigee_km": 1216.3089360896001,
      "latitude_deg": -7.403889908963563e-05,
      "longitude_deg": -98.76595671734485,
      "height_km": 1220.2032205202672,
      "semi_major_axis_km": 7595.829896296706,
      "eccentricity": 0.0001822,
      "inclination_deg": 87.8917,
      "raan_deg": 34.6425,
      "arg_perigee_deg": 74.2393,
      "mean_anomaly_deg": 285.8935,
      "mean_motion_rev_day": 13.11414304
    },
    {
      "epoch": "2026-04-10T04:50:43.127520Z",
      "apogee_km": 1219.0738981502654,
      "perigee_km": 1216.3055231473018,
      "latitude_deg": -6.249779078771555e-05,
      "longitude_deg": 123.44787939779076,
      "height_km": 1220.1965253294422,
      "semi_major_axis_km": 7595.826710648783,
      "eccentricity": 0.00018223,
      "inclination_deg": 87.8918,
      "raan_deg": 34.5667,
      "arg_perigee_deg": 74.0909,
      "mean_anomaly_deg": 286.0419,
      "mean_motion_rev_day": 13.11415129
    },
    {
      "epoch": "2026-04-11T19:17:56.304960Z",
      "apogee_km": 1219.0683701242388,
      "perigee_km": 1216.3034905775912,
      "latitude_deg": -6.0920463385435694e-06,
      "longitude_deg": -95.25456340865256,
      "height_km": 1220.186163223278,
      "semi_major_axis_km": 7595.822930350915,
      "eccentricity": 0.000182,
      "inclination_deg": 87.892,
      "raan_deg": 34.2484,
      "arg_perigee_deg": 73.7863,
      "mean_anomaly_deg": 286.3465,
      "mean_motion_rev_day": 13.11416108
    }
  ]
}